NORAD_CAT_ID,OBJECT_NAME,OBJECT_TYPE,EPOCH,MEAN_MOTION,ECCENTRICITY,INCLINATION,RA_OF_ASC_NODE,ARG_OF_PERICENTER,MEAN_ANOMALY,BSTAR,MEAN_MOTION_DOT,MEAN_MOTION_DDOT,TLE_LINE0,TLE_LINE1,TLE_LINE2,SEMIMAJOR_AXIS,PERIOD,APOGEE,PERIGEE,DECAYED
53409.0,STARLINK-4490,PAYLOAD,2023-08-14 02:02:30,15.0883669,0.0001367,53.2162,357.8723,90.8716,269.2433,0.00052298,8.044e-05,0.0,0 STARLINK-4490,1 53409U 22097X   23226.08507748  .00008044  00000-0  52298-3 0  9990,2 53409  53.2162 357.8723 0001367  90.8716 269.2433 15.08836690 56607,6917.891,95.438,540.701,538.81,0.0
53409.0,STARLINK-4490,PAYLOAD,2023-08-15 17:47:09,15.08847918,0.0001304,53.2173,350.4378,79.3914,280.7225,0.00085725,0.00013384,0.0,0 STARLINK-4490,1 53409U 22097X   23227.74107664  .00013384  00000-0  85725-3 0  9991,2 53409  53.2173 350.4378 0001304  79.3914 280.7225 15.08847918 56856,6917.856,95.437,540.623,538.819,0.0
53409.0,STARLINK-4490,PAYLOAD,2023-08-16 01:44:04,15.0884498,0.0001201,53.216,348.9522,72.9387,287.1737,0.00037434,5.676e-05,0.0,0 STARLINK-4490,1 53409U 22097X   23228.07227581  .00005676  00000-0  37434-3 0  9998,2 53409  53.2160 348.9522 0001201  72.9387 287.1737 15.08844980 56905,6917.865,95.437,540.561,538.899,0.0
53409.0,STARLINK-4490,PAYLOAD,2023-08-17 11:07:10,15.08837981,0.0001225,53.2178,342.7101,71.3004,288.8121,3.4041e-05,2.54e-06,0.0,0 STARLINK-4490,1 53409U 22097X   23229.46331845  .00000254  00000-0  34041-4 0  9990,2 53409  53.2178 342.7101 0001225  71.3004 288.8121 15.08837981 57116,6917.887,95.438,540.599,538.904,0.0
53409.0,STARLINK-4490,PAYLOAD,2023-08-17 19:04:06,15.08846299,0.0001576,53.215,341.2185,104.0053,256.1115,0.00024146,3.558e-05,0.0,0 STARLINK-4490,1 53409U 22097X   23229.79451492  .00003558  00000-0  24146-3 0  9991,2 53409  53.2150 341.2185 0001576 104.0053 256.1115 15.08846299 57167,6917.861,95.437,540.816,538.636,0.0
53409.0,STARLINK-4490,PAYLOAD,2023-08-18 10:57:57,15.08835906,0.0001224,53.2182,338.2478,91.477,268.6362,1.3191e-05,-7.8e-07,0.0,0 STARLINK-4490,1 53409U 22097X   23230.45691972 -.00000078  00000-0  13191-4 0  9999,2 53409  53.2182 338.2478 0001224  91.4770 268.6362 15.08835906 57264,6917.893,95.438,540.605,538.911,0.0
53409.0,STARLINK-4490,PAYLOAD,2023-08-18 17:19:30,15.08848588,0.0001178,53.2177,337.0582,92.8008,267.3119,0.00069151,0.00010737,0.0,0 STARLINK-4490,1 53409U 22097X   23230.72187803  .00010737  00000-0  69151-3 0  9990,2 53409  53.2177 337.0582 0001178  92.8008 267.3119 15.08848588 57309,6917.854,95.437,540.534,538.904,0.0
53409.0,STARLINK-4490,PAYLOAD,2023-08-18 23:41:02,15.08844488,0.0001317,53.2162,335.8687,95.8148,264.2994,0.00062414,9.66e-05,0.0,0 STARLINK-4490,1 53409U 22097X   23230.98683999  .00009660  00000-0  62414-3 0  9993,2 53409  53.2162 335.8687 0001317  95.8148 264.2994 15.08844488 57344,6917.867,95.437,540.643,538.821,0.0
53409.0,STARLINK-4490,PAYLOAD,2023-08-19 12:24:08,15.08843802,0.0001402,53.2178,333.4913,94.687,265.4282,0.00016911,2.405e-05,0.0,0 STARLINK-4490,1 53409U 22097X   23231.51676009  .00002405  00000-0  16911-3 0  9998,2 53409  53.2178 333.4913 0001402  94.6870 265.4282 15.08843802 57422,6917.869,95.437,540.704,538.764,0.0
53409.0,STARLINK-4490,PAYLOAD,2023-08-20 12:14:55,15.08837886,0.0001401,53.2174,329.0309,100.3183,259.7967,5.8707e-05,6.46e-06,0.0,0 STARLINK-4490,1 53409U 22097X   23232.51036297  .00000646  00000-0  58707-4 0  9993,2 53409  53.2174 329.0309 0001401 100.3183 259.7967 15.08837886 57576,6917.887,95.438,540.721,538.783,0.0
53409.0,STARLINK-4490,PAYLOAD,2023-08-21 13:41:05,15.08843189,0.0001425,53.218,324.2727,88.9442,271.1713,0.00010623,1.403e-05,0.0,0 STARLINK-4490,1 53409U 22097X   23233.57020265  .00001403  00000-0  10623-3 0  9994,2 53409  53.2180 324.2727 0001425  88.9442 271.1713 15.08843189 57737,6917.871,95.437,540.721,538.75,0.0
53409.0,STARLINK-4490,PAYLOAD,2023-08-23 11:47:16,15.08843233,0.0001693,53.217,315.6511,66.2002,293.9168,7.5706e-05,9.17e-06,0.0,0 STARLINK-4490,1 53409U 22097X   23235.49116424  .00000917  00000-0  75706-4 0  9993,2 53409  53.2170 315.6511 0001693  66.2002 293.9168 15.08843233 58028,6917.871,95.437,540.907,538.564,0.0
53409.0,STARLINK-4490,PAYLOAD,2023-08-24 13:13:26,15.08840806,0.0001452,53.2183,310.8902,100.1041,260.0115,4.0543e-05,3.57e-06,0.0,0 STARLINK-4490,1 53409U 22097X   23236.55100485  .00000357  00000-0  40543-4 0  9990,2 53409  53.2183 310.8902 0001452 100.1041 260.0115 15.08840806 58678,6917.878,95.438,540.747,538.738,0.0
53409.0,STARLINK-4490,PAYLOAD,2023-08-25 11:28:50,15.08858308,0.0001344,53.2181,306.7256,88.273,271.8416,-0.00013571,-2.448e-05,0.0,0 STARLINK-4490,1 53409U 22097X   23237.47836007 -.00002448  00000-0 -13571-3 0  9993,2 53409  53.2181 306.7256 0001344  88.2730 271.8416 15.08858308 58819,6917.824,95.436,540.619,538.76,0.0
53409.0,STARLINK-4490,PAYLOAD,2023-08-25 16:14:59,15.08853057,0.0001346,53.2179,305.8326,95.9457,264.1689,1.9741e-05,2.6e-07,0.0,0 STARLINK-4490,1 53409U 22097X   23237.67707766  .00000026  00000-0  19741-4 0  9998,2 53409  53.2179 305.8326 0001346  95.9457 264.1689 15.08853057 58359,6917.84,95.437,540.637,538.774,0.0
53409.0,STARLINK-4490,PAYLOAD,2023-08-26 09:44:14,15.08835109,0.00016,53.2169,302.5593,106.2387,253.8781,2.1976e-05,6.2e-07,0.0,0 STARLINK-4490,1 53409U 22097X   23238.40572870  .00000062  00000-0  21976-4 0  9999,2 53409  53.2169 302.5593 0001600 106.2387 253.8781 15.08835109 58467,6917.895,95.438,540.867,538.653,0.0
53409.0,STARLINK-4490,PAYLOAD,2023-08-27 09:35:02,15.08840812,0.0001284,53.2163,298.1041,95.3374,264.7764,3.422e-05,2.57e-06,0.0,0 STARLINK-4490,1 53409U 22097X   23239.39933199  .00000257  00000-0  34220-4 0  9995,2 53409  53.2163 298.1041 0001284  95.3374 264.7764 15.08840812 59102,6917.878,95.438,540.631,538.855,0.0
53409.0,STARLINK-4490,PAYLOAD,2023-08-27 12:45:48,15.08845328,0.0001337,53.2165,297.5098,107.8437,252.2701,3.7246e-05,3.05e-06,0.0,0 STARLINK-4490,1 53409U 22097X   23239.53180856  .00000305  00000-0  37246-4 0  9990,2 53409  53.2165 297.5098 0001337 107.8437 252.2701 15.08845328 58634,6917.864,95.437,540.654,538.804,0.0
53409.0,STARLINK-4490,PAYLOAD,2023-08-28 09:25:49,15.08838484,0.0001408,53.2163,293.6446,95.9795,264.1357,0.00010339,1.358e-05,0.0,0 STARLINK-4490,1 53409U 22097X   23240.39293231  .00001358  00000-0  10339-3 0  9990,2 53409  53.2163 293.6446 0001408  95.9795 264.1357 15.08838484 58767,6917.885,95.438,540.724,538.776,0.0
53409.0,STARLINK-4490,PAYLOAD,2023-08-28 20:33:31,15.08841266,0.0001501,53.2165,291.56,89.4751,270.6413,0.00012959,1.775e-05,0.0,0 STARLINK-4490,1 53409U 22097X   23240.85661119  .00001775  00000-0  12959-3 0  9998,2 53409  53.2165 291.5600 0001501  89.4751 270.6413 15.08841266 59322,6917.877,95.437,540.78,538.703,0.0
53409.0,STARLINK-4490,PAYLOAD,2023-08-29 12:27:22,15.08840416,0.0001541,53.2169,288.5877,94.3898,265.727,0.00017165,2.445e-05,0.0,0 STARLINK-4490,1 53409U 22097X   23241.51901277  .00002445  00000-0  17165-3 0  9993,2 53409  53.2169 288.5877 0001541  94.3898 265.7270 15.08840416 58937,6917.879,95.438,540.81,538.678,0.0
53409.0,STARLINK-4490,PAYLOAD,2023-08-30 20:15:05,15.08843687,0.0001351,53.2164,282.6397,98.0957,262.0189,5.2678e-05,5.51e-06,0.0,0 STARLINK-4490,1 53409U 22097X   23242.84381121  .00000551  00000-0  52678-4 0  9995,2 53409  53.2164 282.6397 0001351  98.0957 262.0189 15.08843687 59629,6917.869,95.437,540.669,538.8,0.0
53409.0,STARLINK-4490,PAYLOAD,2023-08-31 13:44:19,15.08843629,0.0001308,53.2169,279.3697,85.2369,274.8773,0.00010775,1.428e-05,0.0,0 STARLINK-4490,1 53409U 22097X   23243.57244987  .00001428  00000-0  10775-3 0  9999,2 53409  53.2169 279.3697 0001308  85.2369 274.8773 15.08843629 59735,6917.869,95.437,540.639,538.829,0.0
53409.0,STARLINK-4490,PAYLOAD,2023-09-01 08:48:57,15.08840166,0.0001243,53.2173,275.8005,92.9264,267.1871,8.6148e-05,1.083e-05,0.0,0 STARLINK-4490,1 53409U 22097X   23244.36733253  .00001083  00000-0  86148-4 0  9991,2 53409  53.2173 275.8005 0001243  92.9264 267.1871 15.08840166 59367,6917.88,95.438,540.605,538.885,0.0
53409.0,STARLINK-4490,PAYLOAD,2023-09-01 13:35:06,15.08843048,0.0001519,53.2159,274.9075,91.1231,268.9935,7.8194e-05,9.57e-06,0.0,0 STARLINK-4490,1 53409U 22097X   23244.56605101  .00000957  00000-0  78194-4 0  9994,2 53409  53.2159 274.9075 0001519  91.1231 268.9935 15.08843048 59888,6917.871,95.437,540.787,538.685,0.0
53409.0,STARLINK-4490,PAYLOAD,2023-09-02 08:39:44,15.08839244,9.09e-05,53.2174,271.3428,74.6803,285.429,4.1422e-05,3.72e-06,0.0,0 STARLINK-4490,1 53409U 22097X   23245.36093328  .00000372  00000-0  41422-4 0  9990,2 53409  53.2174 271.3428 0000909  74.6803 285.4290 15.08839244 60008,6917.883,95.438,540.377,539.119,0.0
53409.0,STARLINK-4490,PAYLOAD,2023-09-02 18:12:03,15.08834739,0.0001742,53.2154,269.5541,91.5707,268.5485,9.6575e-06,-1.34e-06,0.0,0 STARLINK-4490,1 53409U 22097X   23245.75837719 -.00000134  00000-0  96575-5 0  9990,2 53409  53.2154 269.5541 0001742  91.5707 268.5485 15.08834739 59570,6917.896,95.438,540.967,538.556,0.0
53409.0,STARLINK-4490,PAYLOAD,2023-09-03 08:30:31,15.08840362,0.0001609,53.2158,266.8785,90.278,269.8397,7.2472e-05,8.66e-06,0.0,0 STARLINK-4490,1 53409U 22097X   23246.35453343  .00000866  00000-0  72472-4 0  9994,2 53409  53.2158 266.8785 0001609  90.2780 269.8397 15.08840362 60154,6917.879,95.438,540.857,538.631,0.0
53409.0,STARLINK-4490,PAYLOAD,2023-09-04 08:21:19,15.08830486,0.0001905,53.2136,262.418,94.3351,265.7859,0.00011737,1.58e-05,0.0,0 STARLINK-4490,1 53409U 22097X   23247.34814133  .00001580  00000-0  11737-3 0  9992,2 53409  53.2136 262.4180 0001905  94.3351 265.7859 15.08830486 59814,6917.909,95.438,541.092,538.457,0.0
53409.0,STARLINK-4490,PAYLOAD,2023-09-04 09:56:42,15.08830788,0.0001709,53.2158,262.1216,95.654,264.4647,0.00011138,1.485e-05,0.0,0 STARLINK-4490,1 53409U 22097X   23247.41438148  .00001485  00000-0  11138-3 0  9997,2 53409  53.2158 262.1216 0001709  95.6540 264.4647 15.08830788 60314,6917.909,95.438,540.956,538.591,0.0
